0 THORAD DELTA 1 DEB
1 42611U 74089GC  23283.71518283  .00000016  00000-0  47274-3 0  9999
2 42611 101.0704  97.8806 0132304 234.3194 124.5491 12.26865910845975
0 THORAD DELTA 1 DEB
1 42612U 74089GD  23282.76258305  .00000115  00000-0  80257-3 0  9998
2 42612 101.5272 260.7755 0083593 214.0725 145.4973 12.69642258438098
0 THORAD DELTA 1 DEB
1 42613U 74089GE  23260.69910554 -.00000042  00000-0  34577-4 0  9993
2 42613 102.1919 241.5749 0066883 243.2671 290.9660 12.43743395446668
0 THORAD DELTA 1 DEB
1 42614U 74089GF  23282.13642150  .00001023  00000-0  62705-2 0  9992
2 42614 101.8307  57.3415 0036407 273.7579 262.9541 12.58498657412364
0 THORAD DELTA 1 DEB
1 42615U 74089GG  23283.14724833  .00000198  00000-0  13770-2 0  9994
2 42615 101.6651 255.0779 0076893  58.2752   3.8577 12.60343237454461
0 THORAD DELTA 1 DEB
1 42616U 74089GH  23280.53222811  .00000105  00000-0  20914-2 0  9990
2 42616 101.4414  23.4049 0498435 294.2640  73.5803 11.58904639776347
0 THORAD DELTA 1 DEB
1 42617U 74089GJ  23279.55490955  .00000104  00000-0  13239-2 0  9998
2 42617 101.5470  28.4215 0181948 178.2336 251.3195 12.19335047857307
0 THORAD DELTA 1 DEB
1 42619U 74089GL  23283.36805260  .00002755  00000-0  46485-2 0  9996
2 42619 102.0574  78.1863 0185902  75.1620 317.8938 13.40303762482464
0 THORAD DELTA 1 DEB
1 42621U 74089GN  23283.35876190  .00000113  00000-0  17789-2 0  9999
2 42621 101.0346 242.8472 0373565 165.1177 349.4997 11.85203854427553
0 THORAD DELTA 1 DEB
1 42622U 74089GP  23282.02004212  .00000027  00000-0  57870-3 0  9991
2 42622 101.3961 120.2004 0152641 152.5278   6.1935 12.24134898441529
0 THORAD DELTA 1 DEB
1 42623U 74089GQ  23282.21986258 -.00000013  00000-0  23361-3 0  9996
2 42623 102.1882 269.6171 0071637 201.6127 158.1909 12.43766734110172
0 THORAD DELTA 1 DEB
1 42625U 74089GS  23278.43291752  .00000205  00000-0  17823-2 0  9992
2 42625 101.9104 247.6740 0002482 276.5962 235.6457 12.43816742449401
0 THORAD DELTA 1 DEB
1 42626U 74089GT  23269.33327592  .00000072  00000-0  66135-3 0  9997
2 42626 101.6061 230.1654 0124538  51.2689 309.9443 12.58926811453087
0 THORAD DELTA 1 DEB
1 42627U 74089GU  23283.12007888  .00000318  00000-0  21386-2 0  9995
2 42627 101.6063 253.1104 0065307  36.9339 323.6208 12.57514195880246
0 THORAD DELTA 1 DEB
1 42628U 74089GV  23283.68821832 -.00000069  00000-0 -35219-3 0  9996
2 42628 101.1152 280.7030 0258590  73.3882 289.5391 12.06823203394522
0 THORAD AGENA D DEB
1 44564U 70025TM  23283.60589444  .00005613  00000-0  31347-2 0  9990
2 44564  99.9947 146.0039 0083362 331.9091  84.4366 14.09536272506576
